     2.100          NAVIGATION                              RINEX VERSION / TYPE
fic2rin                                 07/20/2011 00:04:47 PGM / RUN BY / DATE
                                                            END OF HEADER
 9 11  7 19 17 59 44.0  .937492586672D-04  .238742359215D-11  .000000000000D+00
     .240000000000D+02  .581250000000D+02  .396123642997D-08 -.277944313423D+01
     .293552875519D-05  .174277673941D-01  .870972871780D-05  .515366832161D+04
     .237584000000D+06  .275671482086D-06  .125224566341D+01  .132247805595D-06
     .983562907629D+00  .218593750000D+03  .158728739854D+01 -.755924344426D-08
     .419660337680D-09  .100000000000D+01  .164500000000D+04  .000000000000D+00
     .240000000000D+01  .000000000000D+00 -.558793544769D-08  .240000000000D+02
     .230406000000D+06  .400000000000D+01
13 11  7 19 17 59 44.0  .260382890701D-03 -.181898940355D-11  .000000000000D+00
     .160000000000D+02 -.818750000000D+01  .377944314326D-08  .394199017457D+00
    -.571832060814D-06  .471843639389D-02  .962428748608D-05  .515357212257D+04
     .237584000000D+06 -.298023223877D-07  .306229684976D+00  .130385160446D-07
     .989496155184D+00  .206343750000D+03  .189980386131D+01 -.773282210308D-08
    -.187864968187D-09  .100000000000D+01  .164500000000D+04  .000000000000D+00
     .240000000000D+01  .000000000000D+00 -.111758708954D-07  .160000000000D+02
     .230406000000D+06  .400000000000D+01
30 11  7 19 17 59 44.0  .255061313510D-04  .466116034659D-11  .000000000000D+00
     .200000000000D+01 -.145625000000D+02  .503020952842D-08  .539618086494D+00
    -.622123479843D-06  .129248503363D-01  .403076410294D-05  .515369576073D+04
     .237584000000D+06 -.143423676491D-06  .227594861323D+01  .279396772385D-07
     .961240413282D+00  .306906250000D+03  .154243022528D+01 -.867393273269D-08
    -.317870383435D-10  .100000000000D+01  .164500000000D+04  .000000000000D+00
     .685000000000D+01  .630000000000D+02 -.791624188423D-08  .200000000000D+01
     .230406000000D+06  .400000000000D+01
 2 11  7 19 18  0  0.0  .347356777638D-03  .181898940355D-11  .000000000000D+00
     .670000000000D+02  .442187500000D+02  .498842207352D-08 -.566412719946D+00
     .221654772758D-05  .103672525147D-01  .973045825958D-05  .515378567886D+04
     .237600000000D+06  .305473804474D-06 -.188777817292D+01 -.186264514923D-08
     .938669894340D+00  .182281250000D+03 -.296138380244D+01 -.832498962638D-08
     .234295473633D-09  .100000000000D+01  .164500000000D+04  .000000000000D+00
     .240000000000D+01  .000000000000D+00 -.172294676304D-07  .670000000000D+02
     .230406000000D+06  .400000000000D+01
 3 11  7 19 18  0  0.0  .743860378861D-03  .488853402203D-11  .000000000000D+00
     .127000000000D+03 -.671250000000D+02  .535808032841D-08 -.403993055041D+00
    -.341795384884D-05  .145027167164D-01  .789202749729D-05  .515366638756D+04
     .237600000000D+06 -.113621354103D-06 -.304634241001D+01  .130385160446D-06
     .929532828396D+00  .208656250000D+03  .110830392366D+01 -.873643533617D-08
    -.326799326789D-09  .100000000000D+01  .164500000000D+04  .000000000000D+00
     .485000000000D+01  .000000000000D+00 -.465661287308D-08  .127000000000D+03
     .230406000000D+06  .400000000000D+01
 4 11  7 19 18  0  0.0  .176824163646D-03  .109139364213D-10  .000000000000D+00
     .800000000000D+01  .482187500000D+02  .488627496154D-08  .265484294308D+01
     .233761966228D-05  .960716395639D-02  .985153019428D-05  .515367960167D+04
     .237600000000D+06  .260770320892D-07 -.187047742430D+01 -.113621354103D-06
     .937746207865D+00  .176906250000D+03  .737758335625D+00 -.809212278368D-08
     .309655755548D-09  .100000000000D+01  .164500000000D+04  .000000000000D+00
     .240000000000D+01  .000000000000D+00 -.651925802231D-08  .800000000000D+01
     .230406000000D+06  .400000000000D+01
 5 11  7 19 18  0  0.0 -.191628001630D-03 -.557065504836D-11  .000000000000D+00
     .950000000000D+02  .113437500000D+02  .493270546698D-08  .146252118959D+01
     .638887286186D-06  .225650868379D-02  .452995300293D-05  .515370729446D+04
     .237600000000D+06 -.558793544769D-07 -.825408659801D+00 -.931322574615D-08
     .953497575561D+00  .288250000000D+03  .165114532632D+00 -.836570560807D-08
    -.242867259253D-10  .100000000000D+01  .164500000000D+04  .000000000000D+00
     .340000000000D+01  .000000000000D+00 -.102445483208D-07  .950000000000D+02
     .230406000000D+06  .400000000000D+01
 6 11  7 19 18  0  0.0 -.471412204206D-04 -.853788151289D-10  .000000000000D+00
     .820000000000D+02 -.736562500000D+02  .504020994498D-08  .160900803083D+01
    -.375136733055D-05  .675465236418D-02  .807642936707D-05  .515364074135D+04
     .237600000000D+06  .838190317154D-07 -.297230379686D+01  .931322574615D-08
     .936617186208D+00  .204031250000D+03 -.737385307606D+00 -.825820113008D-08
    -.389659088008D-09  .100000000000D+01  .164500000000D+04  .000000000000D+00
     .240000000000D+01  .000000000000D+00 -.465661287308D-08  .820000000000D+02
     .230406000000D+06  .400000000000D+01
 7 11  7 19 18  0  0.0  .185295939445D-04  .147792889038D-11  .000000000000D+00
     .520000000000D+02  .639062500000D+02  .424089093584D-08 -.204971058809D+01
     .313855707645D-05  .471981940791D-02  .869669020176D-05  .515365012360D+04
     .237600000000D+06 -.242143869400D-07  .128030537429D+01 -.670552253723D-07
     .974662303374D+00  .223156250000D+03 -.312672686189D+01 -.791640117846D-08
     .382515933324D-09  .100000000000D+01  .164500000000D+04  .000000000000D+00
     .240000000000D+01  .000000000000D+00 -.107102096081D-07  .520000000000D+02
     .230406000000D+06  .400000000000D+01
 8 11  7 19 18  0  0.0  .855326652527D-05  .113686837722D-12  .000000000000D+00
     .100000000000D+02  .715937500000D+02  .374729894719D-08 -.255574522642D+01
     .360980629921D-05  .117898501921D-01  .861473381519D-05  .515358347130D+04
     .237600000000D+06 -.176951289177D-06  .135696837177D+01 -.102445483208D-06
     .996396577380D+00  .237843750000D+03 -.306805091472D+01 -.760210237236D-08
     .419303179946D-09  .100000000000D+01  .164500000000D+04  .000000000000D+00
     .240000000000D+01  .000000000000D+00 -.419095158577D-08  .100000000000D+02
     .230406000000D+06  .400000000000D+01
10 11  7 19 18  0  0.0 -.727735459805D-05 -.125055521494D-11  .000000000000D+00
     .480000000000D+02  .105625000000D+02  .512449917025D-08  .167454702703D+01
     .486150383949D-06  .102296365658D-01  .451132655144D-05  .515361657906D+04
     .237600000000D+06 -.191852450371D-06 -.802024265404D+00  .279396772385D-07
     .948448523008D+00  .286781250000D+03  .704989128644D+00 -.854607026384D-08
    -.828605943335D-10  .100000000000D+01  .164500000000D+04  .000000000000D+00
     .240000000000D+01  .000000000000D+00 -.232830643654D-08  .480000000000D+02
     .230406000000D+06  .400000000000D+01
11 11  7 19 18  0  0.0 -.169462524354D-03 -.329691829393D-11  .000000000000D+00
     .610000000000D+02  .289687500000D+02  .588417367088D-08 -.190387168936D+01
     .143423676491D-05  .119286817499D-01  .955909490585D-05  .515366861916D+04
     .237600000000D+06  .176951289177D-06 -.212787157565D+01 -.169500708580D-06
     .887853306311D+00  .155312500000D+03  .944969968604D+00 -.842677958062D-08
     .184293390845D-09  .100000000000D+01  .164500000000D+04  .000000000000D+00
     .340000000000D+01  .000000000000D+00 -.116415321827D-07  .610000000000D+02
     .230406000000D+06  .400000000000D+01
12 11  7 19 18  0  0.0  .102045014501D-04  .250111042988D-11  .000000000000D+00
     .260000000000D+02 -.204687500000D+02  .457126183998D-08 -.224986489067D+01
    -.112131237984D-05  .365951703861D-02  .384822487831D-05  .515370524788D+04
     .237600000000D+06 -.128522515297D-06  .233587362327D+01 -.119209289551D-06
     .975872239030D+00  .310718750000D+03 -.108059100775D+00 -.823641450830D-08
    -.300012496725D-10  .100000000000D+01  .164500000000D+04  .000000000000D+00
     .240000000000D+01  .000000000000D+00 -.121071934700D-07  .260000000000D+02
     .230406000000D+06  .400000000000D+01
14 11  7 19 18  0  0.0  .162472948432D-03  .204636307899D-11  .000000000000D+00
     .110000000000D+02 -.152500000000D+02  .398016578988D-08  .442090382290D+00
    -.966712832451D-06  .598457502201D-02  .917539000511D-05  .515368978691D+04
     .237600000000D+06 -.108033418655D-06  .281689649665D+00  .298023223877D-07
     .982500744254D+00  .215500000000D+03 -.211198660257D+01 -.783425489959D-08
    -.231438211759D-09  .100000000000D+01  .164500000000D+04  .000000000000D+00
     .240000000000D+01  .000000000000D+00 -.884756445885D-08  .110000000000D+02
     .230406000000D+06  .400000000000D+01
15 11  7 19 18  0  0.0 -.115083996207D-03  .204636307899D-11  .000000000000D+00
     .390000000000D+02 -.301562500000D+02  .470233872843D-08  .649953729182D-01
    -.145658850670D-05  .347037322354D-02  .884570181370D-05  .515364928055D+04
     .237600000000D+06  .763684511185D-07  .204194746262D+00 -.391155481339D-07
     .949608178169D+00  .201968750000D+03 -.615606080407D-01 -.821605651745D-08
    -.269654089318D-09  .100000000000D+01  .164500000000D+04  .000000000000D+00
     .240000000000D+01  .000000000000D+00 -.102445483208D-07  .390000000000D+02
     .230406000000D+06  .400000000000D+01
16 11  7 19 18  0  0.0 -.186442397535D-03 -.238742359215D-11  .000000000000D+00
     .530000000000D+02 -.219062500000D+02  .458911972669D-08  .167657422480D+01
    -.821426510811D-06  .633818947244D-02  .375509262085D-05  .515384289932D+04
     .237600000000D+06  .126659870148D-06  .235376092450D+01  .108033418655D-06
     .976867669934D+00  .314625000000D+03 -.732026842028D-01 -.825784397235D-08
    -.149291932894D-09  .100000000000D+01  .164500000000D+04  .000000000000D+00
     .240000000000D+01  .000000000000D+00 -.977888703346D-08  .530000000000D+02
     .230406000000D+06  .400000000000D+01
